[{"OBJECT_NAME":"STARLINK-1506","OBJECT_ID":"2020-038T","EPOCH":"2026-03-09T15:50:48.887520","MEAN_MOTION":15.26134655,"ECCENTRICITY":0.00025141,"INCLINATION":53.0733,"RA_OF_ASC_NODE":202.5028,"ARG_OF_PERICENTER":227.7836,"MEAN_ANOMALY":132.2949,"EPHEMERIS_TYPE":0,"CLASSIFICATION_TYPE":"U","NORAD_CAT_ID":45747,"ELEMENT_SET_NO":999,"REV_AT_EPOCH":31668,"BSTAR":0.0009799682,"MEAN_MOTION_DOT":0.0002538,"MEAN_MOTION_DDOT":0},{"OBJECT_NAME":"STARLINK-31087","OBJECT_ID":"2023-200J","EPOCH":"2026-03-08T16:18:11.069856","MEAN_MOTION":15.26741848,"ECCENTRICITY":9.134e-5,"INCLINATION":42.9986,"RA_OF_ASC_NODE":173.9308,"ARG_OF_PERICENTER":268.8991,"MEAN_ANOMALY":91.1755,"EPHEMERIS_TYPE":0,"CLASSIFICATION_TYPE":"U","NORAD_CAT_ID":58597,"ELEMENT_SET_NO":999,"REV_AT_EPOCH":12335,"BSTAR":6.3485287e-5,"MEAN_MOTION_DOT":1.444e-5,"MEAN_MOTION_DDOT":0}]
